CCSDS_OMM_VERS = 2.0
CREATION_DATE  = 
ORIGINATOR     = 

OBJECT_NAME    = SL-16 R/B
OBJECT_ID      = 1996-051B
CENTER_NAME    = EARTH
REF_FRAME      = TEME
TIME_SYSTEM    = UTC
MEAN_ELEMENT_THEORY = SGP/SGP4

EPOCH          = 2025-11-18T11:31:02.361216
MEAN_MOTION    = 14.12393745
ECCENTRICITY   = .0018463
INCLINATION    = 70.7608
RA_OF_ASC_NODE = 50.6324
ARG_OF_PERICENTER = 291.6934
MEAN_ANOMALY   = 68.2219

EPHEMERIS_TYPE = 0
CLASSIFICATION_TYPE = U
NORAD_CAT_ID   = 24298
ELEMENT_SET_NO = 999
REV_AT_EPOCH   = 50594
BSTAR          = .15223E-4
MEAN_MOTION_DOT = -.21E-6
MEAN_MOTION_DDOT = 0

CCSDS_OMM_VERS = 2.0
CREATION_DATE  = 
ORIGINATOR     = 

OBJECT_NAME    = ORBVIEW 2 (SEASTAR)
OBJECT_ID      = 1997-037A
CENTER_NAME    = EARTH
REF_FRAME      = TEME
TIME_SYSTEM    = UTC
MEAN_ELEMENT_THEORY = SGP/SGP4

EPOCH          = 2025-11-18T10:45:35.470080
MEAN_MOTION    = 14.35391520
ECCENTRICITY   = .0002811
INCLINATION    = 98.8450
RA_OF_ASC_NODE = 118.9133
ARG_OF_PERICENTER = 46.9957
MEAN_ANOMALY   = 313.1463

EPHEMERIS_TYPE = 0
CLASSIFICATION_TYPE = U
NORAD_CAT_ID   = 24883
ELEMENT_SET_NO = 999
REV_AT_EPOCH   = 49251
BSTAR          = .18558E-3
MEAN_MOTION_DOT = .486E-5
MEAN_MOTION_DDOT = 0

CCSDS_OMM_VERS = 2.0
CREATION_DATE  = 
ORIGINATOR     = 

OBJECT_NAME    = SL-16 R/B
OBJECT_ID      = 1998-043G
CENTER_NAME    = EARTH
REF_FRAME      = TEME
TIME_SYSTEM    = UTC
MEAN_ELEMENT_THEORY = SGP/SGP4

EPOCH          = 2025-11-18T10:49:43.830336
MEAN_MOTION    = 14.26017151
ECCENTRICITY   = .0009538
INCLINATION    = 98.8084
RA_OF_ASC_NODE = 270.1383
ARG_OF_PERICENTER = 343.4030
MEAN_ANOMALY   = 16.6836

EPHEMERIS_TYPE = 0
CLASSIFICATION_TYPE = U
NORAD_CAT_ID   = 25400
ELEMENT_SET_NO = 999
REV_AT_EPOCH   = 42313
BSTAR          = .72428E-4
MEAN_MOTION_DOT = .128E-5
MEAN_MOTION_DDOT = 0

CCSDS_OMM_VERS = 2.0
CREATION_DATE  = 
ORIGINATOR     = 

OBJECT_NAME    = SL-16 R/B
OBJECT_ID      = 1998-045B
CENTER_NAME    = EARTH
REF_FRAME      = TEME
TIME_SYSTEM    = UTC
MEAN_ELEMENT_THEORY = SGP/SGP4

EPOCH          = 2025-11-18T09:30:12.575232
MEAN_MOTION    = 14.16168577
ECCENTRICITY   = .0008398
INCLINATION    = 71.0122
RA_OF_ASC_NODE = 55.6192
ARG_OF_PERICENTER = 211.0558
MEAN_ANOMALY   = 149.0070

EPHEMERIS_TYPE = 0
CLASSIFICATION_TYPE = U
NORAD_CAT_ID   = 25407
ELEMENT_SET_NO = 999
REV_AT_EPOCH   = 41134
BSTAR          = -.3531E-4
MEAN_MOTION_DOT = -.118E-5
MEAN_MOTION_DDOT = 0

CCSDS_OMM_VERS = 2.0
CREATION_DATE  = 
ORIGINATOR     = 

OBJECT_NAME    = ISS (ZARYA)
OBJECT_ID      = 1998-067A
CENTER_NAME    = EARTH
REF_FRAME      = TEME
TIME_SYSTEM    = UTC
MEAN_ELEMENT_THEORY = SGP/SGP4

EPOCH          = 2025-11-18T08:26:36.689856
MEAN_MOTION    = 15.49788164
ECCENTRICITY   = .0004177
INCLINATION    = 51.6332
RA_OF_ASC_NODE = 263.1865
ARG_OF_PERICENTER = 83.8870
MEAN_ANOMALY   = 276.2595

EPHEMERIS_TYPE = 0
CLASSIFICATION_TYPE = U
NORAD_CAT_ID   = 25544
ELEMENT_SET_NO = 999
REV_AT_EPOCH   = 53907
BSTAR          = .27011E-3
MEAN_MOTION_DOT = .14877E-3
MEAN_MOTION_DDOT = 0

CCSDS_OMM_VERS = 2.0
CREATION_DATE  = 
ORIGINATOR     = 

OBJECT_NAME    = CZ-4B R/B
OBJECT_ID      = 1999-025C
CENTER_NAME    = EARTH
REF_FRAME      = TEME
TIME_SYSTEM    = UTC
MEAN_ELEMENT_THEORY = SGP/SGP4

EPOCH          = 2025-11-18T03:02:59.392320
MEAN_MOTION    = 14.18234905
ECCENTRICITY   = .0036202
INCLINATION    = 98.6806
RA_OF_ASC_NODE = 3.9532
ARG_OF_PERICENTER = 306.7575
MEAN_ANOMALY   = 113.0022

EPHEMERIS_TYPE = 0
CLASSIFICATION_TYPE = U
NORAD_CAT_ID   = 25732
ELEMENT_SET_NO = 999
REV_AT_EPOCH   = 37235
BSTAR          = .80425E-4
MEAN_MOTION_DOT = .123E-5
MEAN_MOTION_DDOT = 0

CCSDS_OMM_VERS = 2.0
CREATION_DATE  = 
ORIGINATOR     = 

OBJECT_NAME    = OKEAN-O
OBJECT_ID      = 1999-039A
CENTER_NAME    = EARTH
REF_FRAME      = TEME
TIME_SYSTEM    = UTC
MEAN_ELEMENT_THEORY = SGP/SGP4

EPOCH          = 2025-11-18T04:22:20.345088
MEAN_MOTION    = 14.80102710
ECCENTRICITY   = .0001276
INCLINATION    = 97.9640
RA_OF_ASC_NODE = 18.0928
ARG_OF_PERICENTER = 67.2735
MEAN_ANOMALY   = 292.8611

EPHEMERIS_TYPE = 0
CLASSIFICATION_TYPE = U
NORAD_CAT_ID   = 25860
ELEMENT_SET_NO = 999
REV_AT_EPOCH   = 41789
BSTAR          = .14882E-3
MEAN_MOTION_DOT = .1076E-4
MEAN_MOTION_DDOT = 0

CCSDS_OMM_VERS = 2.0
CREATION_DATE  = 
ORIGINATOR     = 

OBJECT_NAME    = SL-16 R/B
OBJECT_ID      = 1999-039B
CENTER_NAME    = EARTH
REF_FRAME      = TEME
TIME_SYSTEM    = UTC
MEAN_ELEMENT_THEORY = SGP/SGP4

EPOCH          = 2025-11-18T03:12:05.289120
MEAN_MOTION    = 14.81536008
ECCENTRICITY   = .0013509
INCLINATION    = 98.0164
RA_OF_ASC_NODE = 16.2790
ARG_OF_PERICENTER = 258.4324
MEAN_ANOMALY   = 101.5372

EPHEMERIS_TYPE = 0
CLASSIFICATION_TYPE = U
NORAD_CAT_ID   = 25861
ELEMENT_SET_NO = 999
REV_AT_EPOCH   = 42034
BSTAR          = .12376E-3
MEAN_MOTION_DOT = .918E-5
MEAN_MOTION_DDOT = 0

CCSDS_OMM_VERS = 2.0
CREATION_DATE  = 
ORIGINATOR     = 

OBJECT_NAME    = DELTA 2 R/B
OBJECT_ID      = 1999-041E
CENTER_NAME    = EARTH
REF_FRAME      = TEME
TIME_SYSTEM    = UTC
MEAN_ELEMENT_THEORY = SGP/SGP4

EPOCH          = 2025-11-18T11:52:39.901728
MEAN_MOTION    = 14.11316496
ECCENTRICITY   = .0504896
INCLINATION    = 51.7631
RA_OF_ASC_NODE = 25.2210
ARG_OF_PERICENTER = 20.3173
MEAN_ANOMALY   = 341.7082

EPHEMERIS_TYPE = 0
CLASSIFICATION_TYPE = U
NORAD_CAT_ID   = 25876
ELEMENT_SET_NO = 999
REV_AT_EPOCH   = 34732
BSTAR          = .29608E-3
MEAN_MOTION_DOT = .1596E-4
MEAN_MOTION_DDOT = 0

CCSDS_OMM_VERS = 2.0
CREATION_DATE  = 
ORIGINATOR     = 

OBJECT_NAME    = HELIOS 1B
OBJECT_ID      = 1999-064A
CENTER_NAME    = EARTH
REF_FRAME      = TEME
TIME_SYSTEM    = UTC
MEAN_ELEMENT_THEORY = SGP/SGP4

EPOCH          = 2025-11-18T05:54:04.813056
MEAN_MOTION    = 14.87142349
ECCENTRICITY   = .0002549
INCLINATION    = 98.1756
RA_OF_ASC_NODE = 216.1873
ARG_OF_PERICENTER = 75.8921
MEAN_ANOMALY   = 284.2577

EPHEMERIS_TYPE = 0
CLASSIFICATION_TYPE = U
NORAD_CAT_ID   = 25977
ELEMENT_SET_NO = 999
REV_AT_EPOCH   = 66869
BSTAR          = .33079E-3
MEAN_MOTION_DOT = .2915E-4
MEAN_MOTION_DDOT = 0

CCSDS_OMM_VERS = 2.0
CREATION_DATE  = 
ORIGINATOR     = 

OBJECT_NAME    = TERRA
OBJECT_ID      = 1999-068A
CENTER_NAME    = EARTH
REF_FRAME      = TEME
TIME_SYSTEM    = UTC
MEAN_ELEMENT_THEORY = SGP/SGP4

EPOCH          = 2025-11-18T10:12:23.378976
MEAN_MOTION    = 14.60913184
ECCENTRICITY   = .0002749
INCLINATION    = 97.9785
RA_OF_ASC_NODE = 14.9971
ARG_OF_PERICENTER = 148.1979
MEAN_ANOMALY   = 301.0934

EPHEMERIS_TYPE = 0
CLASSIFICATION_TYPE = U
NORAD_CAT_ID   = 25994
ELEMENT_SET_NO = 999
REV_AT_EPOCH   = 37883
BSTAR          = .15927E-3
MEAN_MOTION_DOT = .735E-5
MEAN_MOTION_DDOT = 0

CCSDS_OMM_VERS = 2.0
CREATION_DATE  = 
ORIGINATOR     = 

OBJECT_NAME    = SL-16 R/B
OBJECT_ID      = 2000-006B
CENTER_NAME    = EARTH
REF_FRAME      = TEME
TIME_SYSTEM    = UTC
MEAN_ELEMENT_THEORY = SGP/SGP4

EPOCH          = 2025-11-18T09:10:52.148064
MEAN_MOTION    = 14.15801573
ECCENTRICITY   = .001718
INCLINATION    = 71.0023
RA_OF_ASC_NODE = 331.8732
ARG_OF_PERICENTER = 342.7157
MEAN_ANOMALY   = 17.3379

EPHEMERIS_TYPE = 0
CLASSIFICATION_TYPE = U
NORAD_CAT_ID   = 26070
ELEMENT_SET_NO = 999
REV_AT_EPOCH   = 33280
BSTAR          = -.59761E-4
MEAN_MOTION_DOT = -.165E-5
MEAN_MOTION_DDOT = 0

