SL-16 R/B               
1 24298U 96051B   25322.47988844 -.00000021  00000+0  15223-4 0  9992
2 24298  70.7608  50.6324 0018463 291.6934  68.2219 14.12393745505941
ORBVIEW 2 (SEASTAR)     
1 24883U 97037A   25322.44832720  .00000486  00000+0  18558-3 0  9992
2 24883  98.8450 118.9133 0002811  46.9957 313.1463 14.35391520492514
SL-16 R/B               
1 25400U 98043G   25322.45120174  .00000128  00000+0  72428-4 0  9990
2 25400  98.8084 270.1383 0009538 343.4030  16.6836 14.26017151423137
SL-16 R/B               
1 25407U 98045B   25322.39597888 -.00000118  00000+0 -35310-4 0  9992
2 25407  71.0122  55.6192 0008398 211.0558 149.0070 14.16168577411341
ISS (ZARYA)             
1 25544U 98067A   25322.35181354  .00014877  00000+0  27011-3 0  9994
2 25544  51.6332 263.1865 0004177  83.8870 276.2595 15.49788164539079
CZ-4B R/B               
1 25732U 99025C   25322.12707630  .00000123  00000+0  80425-4 0  9992
2 25732  98.6806   3.9532 0036202 306.7575 113.0022 14.18234906372353
OKEAN-O                 
1 25860U 99039A   25322.18217992  .00001076  00000+0  14882-3 0  9993
2 25860  97.9640  18.0928 0001276  67.2735 292.8611 14.80102710417894
SL-16 R/B               
1 25861U 99039B   25322.13339456  .00000918  00000+0  12376-3 0  9999
2 25861  98.0164  16.2790 0013509 258.4324 101.5372 14.81536008420341
DELTA 2 R/B             
1 25876U 99041E   25322.49490627  .00001596  00000+0  29608-3 0  9994
2 25876  51.7631  25.2210 0504896  20.3173 341.7082 14.11316496347323
HELIOS 1B               
1 25977U 99064A   25322.24588904  .00002915  00000+0  33079-3 0  9993
2 25977  98.1756 216.1873 0002549  75.8921 284.2577 14.87142349668691
TERRA                   
1 25994U 99068A   25322.42527059  .00000735  00000+0  15927-3 0  9990
2 25994  97.9785  14.9971 0002749 148.1979 301.0934 14.60913184378834
SL-16 R/B               
1 26070U 00006B   25322.38254801 -.00000165  00000+0 -59761-4 0  9991
2 26070  71.0023 331.8732 0017180 342.7157  17.3379 14.15801573332804
